NORAD_CAT_ID,OBJECT_NAME,OBJECT_TYPE,EPOCH,MEAN_MOTION,ECCENTRICITY,INCLINATION,RA_OF_ASC_NODE,ARG_OF_PERICENTER,MEAN_ANOMALY,BSTAR,MEAN_MOTION_DOT,MEAN_MOTION_DDOT,TLE_LINE0,TLE_LINE1,TLE_LINE2,SEMIMAJOR_AXIS,PERIOD,APOGEE,PERIGEE,DECAYED
53917.0,STARLINK-5036,PAYLOAD,2023-02-07 22:24:44,15.08856984,0.000109,53.2185,327.8575,81.5247,278.5869,0.00023217,3.411e-05,0.0,0 STARLINK-5036,1 53917U 22119AH  23038.93384747  .00003411  00000-0  23217-3 0  9998,2 53917  53.2185 327.8575 0001090  81.5247 278.5869 15.08856984 21872,6917.828,95.436,540.448,538.939,0.0
53917.0,STARLINK-5036,PAYLOAD,2023-02-08 22:15:31,15.08853868,0.000125,53.2191,323.3937,117.8312,242.2807,0.0011614,0.00018251,0.0,0 STARLINK-5036,1 53917U 22119AH  23039.92744242  .00018251  00000-0  11614-2 0  9993,2 53917  53.2191 323.3937 0001250 117.8312 242.2807 15.08853868 22022,6917.838,95.437,540.568,538.838,0.0
53917.0,STARLINK-5036,PAYLOAD,2023-02-09 01:26:17,15.08857106,7.7e-05,53.219,322.7997,75.8666,284.2412,0.0013867,0.00021861,0.0,0 STARLINK-5036,1 53917U 22119AH  23040.05992343  .00021861  00000-0  13867-2 0  9999,2 53917  53.2190 322.7997 0000770  75.8666 284.2412 15.08857106 21623,6917.828,95.436,540.226,539.16,0.0
53917.0,STARLINK-5036,PAYLOAD,2023-02-09 04:37:03,15.08863613,8.75e-05,53.2181,322.204,78.0262,282.0829,0.0014445,0.00022791,0.0,0 STARLINK-5036,1 53917U 22119AH  23040.19240115  .00022791  00000-0  14445-2 0  9993,2 53917  53.2181 322.2040 0000875  78.0262 282.0829 15.08863613 22067,6917.808,95.436,540.279,539.068,0.0
53917.0,STARLINK-5036,PAYLOAD,2023-02-10 01:17:04,15.08842617,7.98e-05,53.2178,318.3414,104.2659,255.8422,0.0012494,0.00019654,0.0,0 STARLINK-5036,1 53917U 22119AH  23041.05352846  .00019654  00000-0  12494-2 0  9990,2 53917  53.2178 318.3414 0000798 104.2659 255.8422 15.08842617 21775,6917.872,95.437,540.289,539.185,0.0
53917.0,STARLINK-5036,PAYLOAD,2023-02-11 01:07:52,15.08862476,7.43e-05,53.2178,313.8816,100.5506,259.557,0.0016258,0.00025697,0.0,0 STARLINK-5036,1 53917U 22119AH  23042.04713007  .00025697  00000-0  16258-2 0  9996,2 53917  53.2178 313.8816 0000743 100.5506 259.5570 15.08862476 21928,6917.812,95.436,540.191,539.163,0.0
53917.0,STARLINK-5036,PAYLOAD,2023-02-12 04:09:25,15.08855466,0.000117,53.2177,308.8243,76.2781,283.8342,0.0013062,0.0002057,0.0,0 STARLINK-5036,1 53917U 22119AH  23043.17321356  .00020570  00000-0  13062-2 0  9998,2 53917  53.2177 308.8243 0001170  76.2781 283.8342 15.08855466 22091,6917.833,95.437,540.508,538.889,0.0
53917.0,STARLINK-5036,PAYLOAD,2023-02-12 16:52:31,15.08830015,0.0002274,53.2174,306.4474,89.3671,270.7582,0.0012155,0.00019105,0.0,0 STARLINK-5036,1 53917U 22119AH  23043.70314061  .00019105  00000-0  12155-2 0  9996,2 53917  53.2174 306.4474 0002274  89.3671 270.7582 15.08830015 22170,6917.911,95.438,541.349,538.203,0.0
53917.0,STARLINK-5036,PAYLOAD,2023-02-13 10:21:46,15.0883565,0.0002385,53.2162,303.1749,78.5321,281.5939,0.00045864,7.018e-05,0.0,0 STARLINK-5036,1 53917U 22119AH  23044.43178474  .00007018  00000-0  45864-3 0  9997,2 53917  53.2162 303.1749 0002385  78.5321 281.5939 15.08835650 22289,6917.894,95.438,541.409,538.109,0.0
53917.0,STARLINK-5036,PAYLOAD,2023-02-14 02:15:37,15.08835853,0.0001654,53.218,300.2012,76.3022,283.8154,0.00025254,3.733e-05,0.0,0 STARLINK-5036,1 53917U 22119AH  23045.09418549  .00003733  00000-0  25254-3 0  9991,2 53917  53.2180 300.2012 0001654  76.3022 283.8154 15.08835853 22382,6917.893,95.438,540.902,538.614,0.0
53917.0,STARLINK-5036,PAYLOAD,2023-02-14 10:12:33,15.08836724,0.0001796,53.2186,298.7163,75.4564,284.6627,0.0002066,3.001e-05,0.0,0 STARLINK-5036,1 53917U 22119AH  23045.42538719  .00003001  00000-0  20660-3 0  9994,2 53917  53.2186 298.7163 0001796  75.4564 284.6627 15.08836724 22858,6917.89,95.438,540.998,538.513,0.0
53917.0,STARLINK-5036,PAYLOAD,2023-02-15 10:03:20,15.08843024,0.0001126,53.2164,294.2539,86.9621,273.1499,0.00028346,4.227e-05,0.0,0 STARLINK-5036,1 53917U 22119AH  23046.41898539  .00004227  00000-0  28346-3 0  9993,2 53917  53.2164 294.2539 0001126  86.9621 273.1499 15.08843024 22581,6917.871,95.437,540.515,538.957,0.0
53917.0,STARLINK-5036,PAYLOAD,2023-02-15 21:11:02,15.08850847,0.0001448,53.2182,292.1748,75.4865,284.6288,0.00037783,5.732e-05,0.0,0 STARLINK-5036,1 53917U 22119AH  23046.88266410  .00005732  00000-0  37783-3 0  9998,2 53917  53.2182 292.1748 0001448  75.4865 284.6288 15.08850847 23079,6917.847,95.437,540.714,538.711,0.0
53917.0,STARLINK-5036,PAYLOAD,2023-02-15 22:46:25,15.08854739,0.0001351,53.2174,291.8751,83.7123,276.4023,0.00047206,7.236e-05,0.0,0 STARLINK-5036,1 53917U 22119AH  23046.94890232  .00007236  00000-0  47206-3 0  9992,2 53917  53.2174 291.8751 0001351  83.7123 276.4023 15.08854739 23083,6917.835,95.437,540.635,538.766,0.0
53917.0,STARLINK-5036,PAYLOAD,2023-02-17 01:47:58,15.0884466,0.0001128,53.2179,286.8191,93.0638,267.0483,0.00020396,2.96e-05,0.0,0 STARLINK-5036,1 53917U 22119AH  23048.07498472  .00002960  00000-0  20396-3 0  9998,2 53917  53.2179 286.8191 0001128  93.0638 267.0483 15.08844660 22837,6917.866,95.437,540.511,538.951,0.0
53917.0,STARLINK-5036,PAYLOAD,2023-02-17 16:06:27,15.08827731,9.91e-05,53.2171,284.1408,104.5392,255.571,-6.8711e-05,-1.381e-05,0.0,0 STARLINK-5036,1 53917U 22119AH  23048.67115269 -.00001381  00000-0 -68711-4 0  9996,2 53917  53.2171 284.1408 0000991 104.5392 255.5710 15.08827731 22928,6917.918,95.438,540.468,539.097,0.0
53917.0,STARLINK-5036,PAYLOAD,2023-02-17 20:52:37,15.08828991,0.0001044,53.2174,283.2507,95.564,264.5472,6.6653e-06,-1.82e-06,0.0,0 STARLINK-5036,1 53917U 22119AH  23048.86987474 -.00000182  00000-0  66653-5 0  9993,2 53917  53.2174 283.2507 0001044  95.5640 264.5472 15.08828991 23370,6917.914,95.438,540.501,539.057,0.0
53917.0,STARLINK-5036,PAYLOAD,2023-02-17 22:27:59,15.08835495,9.62e-05,53.2172,282.9526,100.4648,259.6452,-9.1741e-05,-1.747e-05,0.0,0 STARLINK-5036,1 53917U 22119AH  23048.93611017 -.00001747  00000-0 -91741-4 0  9992,2 53917  53.2172 282.9526 0000962 100.4648 259.6452 15.08835495 22961,6917.894,95.438,540.425,539.094,0.0
53917.0,STARLINK-5036,PAYLOAD,2023-02-18 08:00:18,15.088362,0.0001135,53.2169,281.1699,99.9013,260.2107,-2.7353e-05,-7.23e-06,0.0,0 STARLINK-5036,1 53917U 22119AH  23049.33355077 -.00000723  00000-0 -27353-4 0  9999,2 53917  53.2169 281.1699 0001135  99.9013 260.2107 15.08836200 23444,6917.892,95.438,540.542,538.972,0.0
53917.0,STARLINK-5036,PAYLOAD,2023-02-18 15:57:15,15.08807362,0.00013,53.2166,279.6827,108.1447,251.9686,0.00080829,0.00012588,0.0,0 STARLINK-5036,1 53917U 22119AH  23049.66476473  .00012588  00000-0  80829-3 0  9995,2 53917  53.2166 279.6827 0001300 108.1447 251.9686 15.08807362 23079,6917.98,95.44,540.744,538.946,0.0
53917.0,STARLINK-5036,PAYLOAD,2023-02-18 22:18:47,15.08840655,0.0001237,53.2178,278.4949,98.2129,261.9003,0.00010778,1.428e-05,0.0,0 STARLINK-5036,1 53917U 22119AH  23049.92971351  .00001428  00000-0  10778-3 0  9996,2 53917  53.2178 278.4949 0001237  98.2129 261.9003 15.08840655 23110,6917.878,95.438,540.599,538.888,0.0
53917.0,STARLINK-5036,PAYLOAD,2023-02-19 07:51:06,15.08833119,0.0001263,53.2176,276.711,98.9515,261.162,0.00016962,2.412e-05,0.0,0 STARLINK-5036,1 53917U 22119AH  23050.32715935  .00002412  00000-0  16962-3 0  9991,2 53917  53.2176 276.7110 0001263  98.9515 261.1620 15.08833119 23174,6917.901,95.438,540.64,538.893,0.0
53917.0,STARLINK-5036,PAYLOAD,2023-02-19 14:12:39,15.08824909,0.0001792,53.2176,275.522,95.0059,265.1138,6.1908e-05,6.97e-06,0.0,0 STARLINK-5036,1 53917U 22119AH  23050.59212755  .00000697  00000-0  61908-4 0  9996,2 53917  53.2176 275.5220 0001792  95.0059 265.1138 15.08824909 23637,6917.927,95.439,541.031,538.552,0.0
53917.0,STARLINK-5036,PAYLOAD,2023-02-19 20:34:13,15.0881553,0.000135,53.2186,274.3329,102.3985,257.7158,1.6755e-05,-2.1e-07,0.0,0 STARLINK-5036,1 53917U 22119AH  23050.85710055 -.00000021  00000-0  16755-4 0  9993,2 53917  53.2186 274.3329 0001350 102.3985 257.7158 15.08815530 23252,6917.955,95.439,540.754,538.886,0.0
53917.0,STARLINK-5036,PAYLOAD,2023-02-20 07:41:54,15.08832981,0.0001294,53.2184,272.2511,100.6584,259.4554,8.812e-05,1.115e-05,0.0,0 STARLINK-5036,1 53917U 22119AH  23051.32077040  .00001115  00000-0  88120-4 0  9995,2 53917  53.2184 272.2511 0001294 100.6584 259.4554 15.08832981 23329,6917.902,95.438,540.662,538.872,0.0
53917.0,STARLINK-5036,PAYLOAD,2023-02-20 14:03:26,15.08840888,0.0001306,53.2183,271.061,106.3846,253.729,0.00010664,1.41e-05,0.0,0 STARLINK-5036,1 53917U 22119AH  23051.58572501  .00001410  00000-0  10664-3 0  9990,2 53917  53.2183 271.0610 0001306 106.3846 253.7290 15.08840888 23782,6917.878,95.437,540.646,538.839,0.0
53917.0,STARLINK-5036,PAYLOAD,2023-02-20 18:49:35,15.08845618,0.0001383,53.2182,270.1691,105.4424,254.6721,0.00014859,2.078e-05,0.0,0 STARLINK-5036,1 53917U 22119AH  23051.78444107  .00002078  00000-0  14859-3 0  9993,2 53917  53.2182 270.1691 0001383 105.4424 254.6721 15.08845618 23399,6917.863,95.437,540.685,538.771,0.0
53917.0,STARLINK-5036,PAYLOAD,2023-02-21 07:32:40,15.088529,0.0001308,53.2182,267.79,98.6162,261.4979,0.00012079,1.636e-05,0.0,0 STARLINK-5036,1 53917U 22119AH  23052.31435493  .00001636  00000-0  12079-3 0  9992,2 53917  53.2182 267.7900 0001308  98.6162 261.4979 15.08852900 23891,6917.841,95.437,540.611,538.801,0.0
53917.0,STARLINK-5036,PAYLOAD,2023-02-21 20:15:45,15.08851698,0.0001275,53.2176,265.4102,99.7316,260.382,0.00038757,5.888e-05,0.0,0 STARLINK-5036,1 53917U 22119AH  23052.84427135  .00005888  00000-0  38757-3 0  9998,2 53917  53.2176 265.4102 0001275  99.7316 260.3820 15.08851698 23558,6917.845,95.437,540.592,538.828,0.0
53917.0,STARLINK-5036,PAYLOAD,2023-02-21 21:51:08,15.08862594,0.000133,53.2167,265.1126,97.3531,262.7612,0.00046308,7.094e-05,0.0,0 STARLINK-5036,1 53917U 22119AH  23052.91051080  .00007094  00000-0  46308-3 0  9990,2 53917  53.2167 265.1126 0001330  97.3531 262.7612 15.08862594 23569,6917.811,95.436,540.596,538.756,0.0
